NORAD_CAT_ID,OBJECT_NAME,OBJECT_TYPE,EPOCH,MEAN_MOTION,ECCENTRICITY,INCLINATION,RA_OF_ASC_NODE,ARG_OF_PERICENTER,MEAN_ANOMALY,BSTAR,MEAN_MOTION_DOT,MEAN_MOTION_DDOT,TLE_LINE0,TLE_LINE1,TLE_LINE2,SEMIMAJOR_AXIS,PERIOD,APOGEE,PERIGEE,DECAYED
52310.0,STARLINK-3688,PAYLOAD,2023-07-18 02:12:05,15.08849207,0.0001039,53.2175,103.6562,95.787,264.324,0.00024569,3.625e-05,0.0,0 STARLINK-3688,1 52310U 22041BB  23199.09173494  .00003625  00000-0  24569-3 0  9996,2 52310  53.2175 103.6562 0001039  95.7870 264.3240 15.08849207 70099,6917.852,95.437,540.436,538.998,0.0
52310.0,STARLINK-3688,PAYLOAD,2023-07-18 18:05:57,15.08839885,0.000115,53.2169,100.6821,107.5627,252.5491,0.00010029,1.309e-05,0.0,0 STARLINK-3688,1 52310U 22041BB  23199.75413892  .00001309  00000-0  10029-3 0  9991,2 52310  53.2169 100.6821 0001150 107.5627 252.5491 15.08839885 70192,6917.881,95.438,540.541,538.95,0.0
52310.0,STARLINK-3688,PAYLOAD,2023-07-21 01:44:27,15.08846918,0.0001128,53.218,90.275,86.979,273.1331,0.00017013,2.421e-05,0.0,0 STARLINK-3688,1 52310U 22041BB  23202.07253906  .00002421  00000-0  17013-3 0  9995,2 52310  53.2180  90.2750 0001128  86.9790 273.1331 15.08846918 70542,6917.859,95.437,540.505,538.944,0.0
52310.0,STARLINK-3688,PAYLOAD,2023-07-24 01:16:48,15.08837824,9.37e-05,53.2168,76.8937,81.8888,278.221,-2.4383e-05,-6.76e-06,0.0,0 STARLINK-3688,1 52310U 22041BB  23205.05334440 -.00000676  00000-0 -24383-4 0  9990,2 52310  53.2168  76.8937 0000937  81.8888 278.2210 15.08837824 70991,6917.887,95.438,540.4,539.104,0.0
52310.0,STARLINK-3688,PAYLOAD,2023-07-24 21:56:49,15.08845088,0.0001027,53.2167,73.0278,65.7363,294.3737,0.00033117,4.987e-05,0.0,0 STARLINK-3688,1 52310U 22041BB  23205.91446418  .00004987  00000-0  33117-3 0  9995,2 52310  53.2167  73.0278 0001027  65.7363 294.3737 15.08845088 71127,6917.865,95.437,540.44,539.019,0.0
52310.0,STARLINK-3688,PAYLOAD,2023-07-25 21:47:37,15.08840311,0.0001097,53.2221,68.5668,70.9603,289.1508,8.0251e-05,9.9e-06,0.0,0 STARLINK-3688,1 52310U 22041BB  23206.90806817  .00000990  00000-0  80251-4 0  9990,2 52310  53.2221  68.5668 0001097  70.9603 289.1508 15.08840311 71270,6917.879,95.438,540.503,538.986,0.0
52310.0,STARLINK-3688,PAYLOAD,2023-07-26 21:38:23,15.08842228,8.63e-05,53.2178,64.1087,80.9236,279.1854,0.00017097,2.434e-05,0.0,0 STARLINK-3688,1 52310U 22041BB  23207.90166480  .00002434  00000-0  17097-3 0  9998,2 52310  53.2178  64.1087 0000863  80.9236 279.1854 15.08842228 71420,6917.874,95.437,540.336,539.142,0.0
52310.0,STARLINK-3688,PAYLOAD,2023-07-26 23:13:46,15.08843836,9.44e-05,53.2182,63.8102,74.1072,286.0024,0.00016392,2.322e-05,0.0,0 STARLINK-3688,1 52310U 22041BB  23207.96790401  .00002322  00000-0  16392-3 0  9993,2 52310  53.2182  63.8102 0000944  74.1072 286.0024 15.08843836 71435,6917.869,95.437,540.387,539.081,0.0
52310.0,STARLINK-3688,PAYLOAD,2023-07-27 07:10:43,15.08833342,0.0001024,53.217,62.3219,72.9091,287.2013,-1.6422e-05,-5.49e-06,0.0,0 STARLINK-3688,1 52310U 22041BB  23208.29910912 -.00000549  00000-0 -16422-4 0  9997,2 52310  53.2170  62.3219 0001024  72.9091 287.2013 15.08833342 71489,6917.901,95.438,540.474,539.057,0.0
52310.0,STARLINK-3688,PAYLOAD,2023-07-27 21:29:11,15.08825769,0.0001097,53.2168,59.6461,75.9931,284.1183,-0.00011531,-2.122e-05,0.0,0 STARLINK-3688,1 52310U 22041BB  23208.89527641 -.00002122  00000-0 -11531-3 0  9990,2 52310  53.2168  59.6461 0001097  75.9931 284.1183 15.08825769 71578,6917.924,95.438,540.548,539.03,0.0
52310.0,STARLINK-3688,PAYLOAD,2023-07-28 00:39:58,15.08827131,0.0001025,53.2168,59.0514,80.7877,279.3231,-1.4207e-05,-5.14e-06,0.0,0 STARLINK-3688,1 52310U 22041BB  23209.02776140 -.00000514  00000-0 -14207-4 0  9993,2 52310  53.2168  59.0514 0001025  80.7877 279.3231 15.08827131 71592,6917.92,95.438,540.494,539.076,0.0
52310.0,STARLINK-3688,PAYLOAD,2023-07-28 22:55:21,15.0885215,8.24e-05,53.2158,54.8897,91.8367,268.2719,-1.1075e-05,-4.64e-06,0.0,0 STARLINK-3688,1 52310U 22041BB  23209.95510700 -.00000464  00000-0 -11075-4 0  9997,2 52310  53.2158  54.8897 0000824  91.8367 268.2719 15.08852150 71734,6917.843,95.437,540.278,539.138,0.0
52310.0,STARLINK-3688,PAYLOAD,2023-07-29 19:35:22,15.08838542,8.58e-05,53.2173,51.0236,101.8832,258.2257,0.00019015,2.74e-05,0.0,0 STARLINK-3688,1 52310U 22041BB  23210.81623012  .00002740  00000-0  19015-3 0  9993,2 52310  53.2173  51.0236 0000858 101.8832 258.2257 15.08838542 71862,6917.885,95.438,540.343,539.156,0.0
52310.0,STARLINK-3688,PAYLOAD,2023-07-30 19:26:09,15.0883587,8.25e-05,53.2177,46.5635,101.6688,258.4397,-7.3319e-06,-4.04e-06,0.0,0 STARLINK-3688,1 52310U 22041BB  23211.80983739 -.00000404  00000-0 -73319-5 0  9994,2 52310  53.2177  46.5635 0000825 101.6688 258.4397 15.08835870 72015,6917.893,95.438,540.329,539.187,0.0
52310.0,STARLINK-3688,PAYLOAD,2023-07-30 21:01:32,15.0884436,8.5e-05,53.2185,46.2642,96.6264,263.4825,-2.4033e-05,-6.7e-06,0.0,0 STARLINK-3688,1 52310U 22041BB  23211.87607248 -.00000670  00000-0 -24033-4 0  9992,2 52310  53.2185  46.2642 0000850  96.6264 263.4825 15.08844360 72027,6917.867,95.437,540.32,539.144,0.0
52310.0,STARLINK-3688,PAYLOAD,2023-07-31 17:41:32,15.08850019,9.95e-05,53.2187,42.3989,93.022,267.0886,9.9805e-05,1.301e-05,0.0,0 STARLINK-3688,1 52310U 22041BB  23212.73718348  .00001301  00000-0  99805-4 0  9991,2 52310  53.2187  42.3989 0000995  93.0220 267.0886 15.08850019 72152,6917.85,95.437,540.403,539.026,0.0
52310.0,STARLINK-3688,PAYLOAD,2023-07-31 20:52:19,15.08833418,0.0001148,53.2186,41.8033,99.3413,260.7709,0.00039102,5.94e-05,0.0,0 STARLINK-3688,1 52310U 22041BB  23212.86966507  .00005940  00000-0  39102-3 0  9993,2 52310  53.2186  41.8033 0001148  99.3413 260.7709 15.08833418 72179,6917.901,95.438,540.56,538.971,0.0
52310.0,STARLINK-3688,PAYLOAD,2023-08-01 17:32:20,15.08835652,9.65e-05,53.2188,37.9364,93.5457,266.5645,8.7825e-06,-1.48e-06,0.0,0 STARLINK-3688,1 52310U 22041BB  23213.73079550 -.00000148  00000-0  87825-5 0  9996,2 52310  53.2188  37.9364 0000965  93.5457 266.5645 15.08835652 72304,6917.894,95.438,540.426,539.091,0.0
52310.0,STARLINK-3688,PAYLOAD,2023-08-02 17:23:06,15.08852016,0.0001107,53.218,33.4767,112.9143,247.1966,1.2603e-05,-8.7e-07,0.0,0 STARLINK-3688,1 52310U 22041BB  23214.72438577 -.00000087  00000-0  12603-4 0  9997,2 52310  53.2180  33.4767 0001107 112.9143 247.1966 15.08852016 72451,6917.844,95.437,540.474,538.943,0.0
52310.0,STARLINK-3688,PAYLOAD,2023-08-03 18:49:18,15.08835024,7.48e-05,53.2189,28.7156,102.8547,257.2529,0.00010099,1.32e-05,0.0,0 STARLINK-3688,1 52310U 22041BB  23215.78423730  .00001320  00000-0  10099-3 0  9995,2 52310  53.2189  28.7156 0000748 102.8547 257.2529 15.08835024 72610,6917.896,95.438,540.278,539.243,0.0
52310.0,STARLINK-3688,PAYLOAD,2023-08-05 10:33:56,15.08839322,0.0001049,53.2181,21.2867,102.1507,257.9603,0.00027903,4.156e-05,0.0,0 STARLINK-3688,1 52310U 22041BB  23217.44023866  .00004156  00000-0  27903-3 0  9998,2 52310  53.2181  21.2867 0001049 102.1507 257.9603 15.08839322 72865,6917.882,95.438,540.473,539.022,0.0
52310.0,STARLINK-3688,PAYLOAD,2023-08-05 18:30:51,15.08861355,0.0001008,53.2177,19.8004,97.9893,262.1214,0.00051362,7.901e-05,0.0,0 STARLINK-3688,1 52310U 22041BB  23217.77142905  .00007901  00000-0  51362-3 0  9997,2 52310  53.2177  19.8004 0001008  97.9893 262.1214 15.08861355 72913,6917.815,95.436,540.377,538.983,0.0
52310.0,STARLINK-3688,PAYLOAD,2023-08-06 10:24:44,15.08829113,0.0001261,53.2185,16.8276,92.477,267.6366,-0.00011027,-2.042e-05,0.0,0 STARLINK-3688,1 52310U 22041BB  23218.43384431 -.00002042  00000-0 -11027-3 0  9990,2 52310  53.2185  16.8276 0001261  92.4770 267.6366 15.08829113 73011,6917.914,95.438,540.651,538.906,0.0
52310.0,STARLINK-3688,PAYLOAD,2023-08-06 16:46:17,15.0880571,9.36e-05,53.2178,15.6378,67.253,292.8561,-0.00056089,-9.195e-05,0.0,0 STARLINK-3688,1 52310U 22041BB  23218.69881273 -.00009195  00000-0 -56089-3 0  9997,2 52310  53.2178  15.6378 0000936  67.2530 292.8561 15.08805710 73053,6917.985,95.44,540.498,539.203,0.0
52310.0,STARLINK-3688,PAYLOAD,2023-08-07 10:15:33,15.08818612,0.0001098,53.2176,12.367,60.3255,299.7846,0.0014518,0.00022879,0.0,0 STARLINK-3688,1 52310U 22041BB  23219.42746750  .00022879  00000-0  14518-2 0  9991,2 52310  53.2176  12.3670 0001098  60.3255 299.7846 15.08818612 73167,6917.946,95.439,540.57,539.051,0.0
52310.0,STARLINK-3688,PAYLOAD,2023-08-07 16:37:05,15.08841713,7.38e-05,53.2179,11.1779,20.2636,339.8386,0.0018212,0.00028817,0.0,0 STARLINK-3688,1 52310U 22041BB  23219.69242268  .00028817  00000-0  18212-2 0  9998,2 52310  53.2179  11.1779 0000738  20.2636 339.8386 15.08841713 73203,6917.875,95.437,540.251,539.23,0.0
52310.0,STARLINK-3688,PAYLOAD,2023-08-08 16:27:51,15.08863178,0.0001321,53.2176,6.7178,62.9211,297.1916,0.00063361,9.817e-05,0.0,0 STARLINK-3688,1 52310U 22041BB  23220.68600802  .00009817  00000-0  63361-3 0  9996,2 52310  53.2176   6.7178 0001321  62.9211 297.1916 15.08863178 73354,6917.81,95.436,540.588,538.761,0.0
52310.0,STARLINK-3688,PAYLOAD,2023-08-09 09:57:05,15.0884831,0.0001069,53.2173,3.4467,63.9813,296.1289,-9.4448e-05,-1.791e-05,0.0,0 STARLINK-3688,1 52310U 22041BB  23221.41464470 -.00001791  00000-0 -94448-4 0  9993,2 52310  53.2173   3.4467 0001069  63.9813 296.1289 15.08848310 73469,6917.855,95.437,540.46,538.98,0.0
52310.0,STARLINK-3688,PAYLOAD,2023-08-10 19:20:10,15.08854369,0.0001061,53.2175,357.2011,65.2843,294.8259,0.00012204,1.656e-05,0.0,0 STARLINK-3688,1 52310U 22041BB  23222.80567682  .00001656  00000-0  12204-3 0  9993,2 52310  53.2175 357.2011 0001061  65.2843 294.8259 15.08854369 73672,6917.836,95.437,540.435,538.967,0.0
52310.0,STARLINK-3688,PAYLOAD,2023-08-11 01:41:43,15.08839695,0.0001432,53.2174,356.0102,73.0103,287.1046,2.6718e-05,1.37e-06,0.0,0 STARLINK-3688,1 52310U 22041BB  23223.07064381  .00000137  00000-0  26718-4 0  9990,2 52310  53.2174 356.0102 0001432  73.0103 287.1046 15.08839695 73716,6917.881,95.438,540.737,538.756,0.0
